[Satellite]
VERSION=1.1
NAME=SL-8 R/B
NICKNAME=SL-8 R/B
TLE1=1 12139U 81003B   15054.77222250  .00008006  00000-0  42250-3 0  9990
TLE2=2 12139  82.9535 162.2911 0504137 303.4502  51.9444 14.46202280724525
